BEIDOU-2 G7 (C03)       
1 41586U 16037A   24169.69493905 -.00000334  00000+0  00000+0 0  9997
2 41586   1.9080  69.6778 0009290   4.1577 193.2911  1.00275149 29478
BEIDOU-3 M1 (C19)       
1 43001U 17069A   24169.41242403 -.00000046  00000+0  00000+0 0  9992
2 43001  56.0633  87.2525 0010752 309.0281  50.8711  1.86231634 45016
BEIDOU-3 M2 (C20)       
1 43002U 17069B   24169.34966748 -.00000046  00000+0  00000+0 0  9990
2 43002  56.0625  87.2902 0009052 332.2012  27.7451  1.86231111 45001
GSAT0210 (PRN E01)      
1 41550U 16030B   24169.37599072  .00000021  00000+0  00000+0 0  9990
2 41550  55.3634 241.7732 0002588 263.5233  96.5215  1.70474136 50226
GSAT0207 (PRN E07)      
1 41859U 16069A   24168.44912719  .00000033  00000+0  00000+0 0  9991
2 41859  55.0902 121.3368 0005399 304.4464  55.4640  1.70474073 46945
GSAT0212 (PRN E03)      
1 41860U 16069B   24168.89000537  .00000033  00000+0  00000+0 0  9998
2 41860  55.0882 121.3210 0004034 327.7438  32.1917  1.70474163 47203
GSAT0213 (PRN E04)      
1 41861U 16069C   24167.49865318  .00000033  00000+0  00000+0 0  9990
2 41861  55.0896 121.3660 0005320 287.8252  72.0799  1.70472916 47044
GSAT0214 (PRN E05)      
1 41862U 16069D   24169.40374899  .00000032  00000+0  00000+0 0  9992
2 41862  55.0892 121.3070 0004323 292.2627  67.6499  1.70474215 47203
GSAT0215 (PRN E21)      
1 43055U 17079A   24168.13373356  .00000012  00000+0  00000+0 0  9994
2 43055  55.3417 241.6281 0002514 254.2607 105.7805  1.70474819 40524
GSAT0216 (PRN E25)      
1 43056U 17079B   24168.42543627  .00000014  00000+0  00000+0 0  9999
2 43056  55.3416 241.6201 0003622 266.9497  93.0789  1.70474978 40542
GSAT0217 (PRN E27)      
1 43057U 17079C   24166.88615146  .00000004  00000+0  00000+0 0  9993
2 43057  55.3405 241.6611 0003327 279.6638  80.3646  1.70474904 40502
EUTELSAT 117 WEST B     
1 41589U 16038B   24169.99061559  .00000011  00000+0  00000+0 0  9991
2 41589   0.0118 156.6226 0000281 188.0349 161.6765  1.00270580 29399
SES-15                  
1 42709U 17026A   24169.47861626  .00000082  00000+0  00000+0 0  9998
2 42709   0.0245  30.2026 0000430  51.7900 227.3783  1.00268642   121
QZS-2 (MICHIBIKI-2)     
1 42738U 17028A   24168.52989361 -.00000171  00000+0  00000+0 0  9994
2 42738  40.5731 253.7708 0759659 269.2162  74.0168  1.00284302   294
QZS-3 (MICHIBIKI-3)     
1 42917U 17048A   24170.03916249 -.00000325  00000+0  00000+0 0  9990
2 42917   0.0685 149.1004 0001615 292.4719 326.3650  1.00272428 25053
QZS-4 (MICHIBIKI-4)     
1 42965U 17062A   24168.84354851 -.00000336  00000+0  00000+0 0  9992
2 42965  40.5147 352.7914 0746262 271.5421  81.3716  1.00253340 24492
COSMOS 2522 (752)       
1 42939U 17055A   24169.42532655  .00000081  00000+0  00000+0 0  9996
2 42939  64.0822 216.7590 0009942 240.2777 119.7078  2.13102052 52426
