[{"OBJECT_NAME":"GSAT0210 (PRN E01)","OBJECT_ID":"2016-030B","EPOCH":"2024-06-17T09:01:25.598208","MEAN_MOTION":1.70474136,"ECCENTRICITY":0.0002588,"INCLINATION":55.3634,"RA_OF_ASC_NODE":241.7732,"ARG_OF_PERICENTER":263.5233,"MEAN_ANOMALY":96.5215,"EPHEMERIS_TYPE":0,"CLASSIFICATION_TYPE":"U","NORAD_CAT_ID":41550,"ELEMENT_SET_NO":999,"REV_AT_EPOCH":5022,"BSTAR":0,"MEAN_MOTION_DOT":2.1e-7,"MEAN_MOTION_DDOT":0},{"OBJECT_NAME":"BEIDOU-2 G7 (C03)","OBJECT_ID":"2016-037A","EPOCH":"2024-06-17T16:40:42.733920","MEAN_MOTION":1.00275149,"ECCENTRICITY":0.000929,"INCLINATION":1.908,"RA_OF_ASC_NODE":69.6778,"ARG_OF_PERICENTER":4.1577,"MEAN_ANOMALY":193.2911,"EPHEMERIS_TYPE":0,"CLASSIFICATION_TYPE":"U","NORAD_CAT_ID":41586,"ELEMENT_SET_NO":999,"REV_AT_EPOCH":2947,"BSTAR":0,"MEAN_MOTION_DOT":-3.34e-6,"MEAN_MOTION_DDOT":0},{"OBJECT_NAME":"E 117 W B (WAAS\/PRN 131)","OBJECT_ID":"2016-038B","EPOCH":"2024-06-17T23:46:29.186976","MEAN_MOTION":1.0027058,"ECCENTRICITY":2.81e-5,"INCLINATION":0.0118,"RA_OF_ASC_NODE":156.6226,"ARG_OF_PERICENTER":188.0349,"MEAN_ANOMALY":161.6765,"EPHEMERIS_TYPE":0,"CLASSIFICATION_TYPE":"U","NORAD_CAT_ID":41589,"ELEMENT_SET_NO":999,"REV_AT_EPOCH":2939,"BSTAR":0,"MEAN_MOTION_DOT":1.1e-7,"MEAN_MOTION_DDOT":0},{"OBJECT_NAME":"GSAT0207 (PRN E07)","OBJECT_ID":"2016-069A","EPOCH":"2024-06-16T10:46:44.589216","MEAN_MOTION":1.70474073,"ECCENTRICITY":0.0005399,"INCLINATION":55.0902,"RA_OF_ASC_NODE":121.3368,"ARG_OF_PERICENTER":304.4464,"MEAN_ANOMALY":55.464,"EPHEMERIS_TYPE":0,"CLASSIFICATION_TYPE":"U","NORAD_CAT_ID":41859,"ELEMENT_SET_NO":999,"REV_AT_EPOCH":4694,"BSTAR":0,"MEAN_MOTION_DOT":3.3e-7,"MEAN_MOTION_DDOT":0},{"OBJECT_NAME":"GSAT0212 (PRN E03)","OBJECT_ID":"2016-069B","EPOCH":"2024-06-16T21:21:36.463968","MEAN_MOTION":1.70474163,"ECCENTRICITY":0.0004034,"INCLINATION":55.0882,"RA_OF_ASC_NODE":121.321,"ARG_OF_PERICENTER":327.7438,"MEAN_ANOMALY":32.1917,"EPHEMERIS_TYPE":0,"CLASSIFICATION_TYPE":"U","NORAD_CAT_ID":41860,"ELEMENT_SET_NO":999,"REV_AT_EPOCH":4720,"BSTAR":0,"MEAN_MOTION_DOT":3.3e-7,"MEAN_MOTION_DDOT":0},{"OBJECT_NAME":"GSAT0213 (PRN E04)","OBJECT_ID":"2016-069C","EPOCH":"2024-06-15T11:58:03.634752","MEAN_MOTION":1.70472916,"ECCENTRICITY":0.000532,"INCLINATION":55.0896,"RA_OF_ASC_NODE":121.366,"ARG_OF_PERICENTER":287.8252,"MEAN_ANOMALY":72.0799,"EPHEMERIS_TYPE":0,"CLASSIFICATION_TYPE":"U","NORAD_CAT_ID":41861,"ELEMENT_SET_NO":999,"REV_AT_EPOCH":4704,"BSTAR":0,"MEAN_MOTION_DOT":3.3e-7,"MEAN_MOTION_DDOT":0},{"OBJECT_NAME":"GSAT0214 (PRN E05)","OBJECT_ID":"2016-069D","EPOCH":"2024-06-17T09:41:23.912736","MEAN_MOTION":1.70474215,"ECCENTRICITY":0.0004323,"INCLINATION":55.0892,"RA_OF_ASC_NODE":121.307,"ARG_OF_PERICENTER":292.2627,"MEAN_ANOMALY":67.6499,"EPHEMERIS_TYPE":0,"CLASSIFICATION_TYPE":"U","NORAD_CAT_ID":41862,"ELEMENT_SET_NO":999,"REV_AT_EPOCH":4720,"BSTAR":0,"MEAN_MOTION_DOT":3.2e-7,"MEAN_MOTION_DDOT":0},{"OBJECT_NAME":"SES-15 (WAAS\/PRN 133)","OBJECT_ID":"2017-026A","EPOCH":"2024-06-17T11:29:12.444864","MEAN_MOTION":1.00268642,"ECCENTRICITY":4.3e-5,"INCLINATION":0.0245,"RA_OF_ASC_NODE":30.2026,"ARG_OF_PERICENTER":51.79,"MEAN_ANOMALY":227.3783,"EPHEMERIS_TYPE":0,"CLASSIFICATION_TYPE":"U","NORAD_CAT_ID":42709,"ELEMENT_SET_NO":999,"REV_AT_EPOCH":12,"BSTAR":0,"MEAN_MOTION_DOT":8.2e-7,"MEAN_MOTION_DDOT":0},{"OBJECT_NAME":"QZS-2 (QZSS\/PRN 194)","OBJECT_ID":"2017-028A","EPOCH":"2024-06-16T12:43:02.807904","MEAN_MOTION":1.00284302,"ECCENTRICITY":0.0759659,"INCLINATION":40.5731,"RA_OF_ASC_NODE":253.7708,"ARG_OF_PERICENTER":269.2162,"MEAN_ANOMALY":74.0168,"EPHEMERIS_TYPE":0,"CLASSIFICATION_TYPE":"U","NORAD_CAT_ID":42738,"ELEMENT_SET_NO":999,"REV_AT_EPOCH":29,"BSTAR":0,"MEAN_MOTION_DOT":-1.71e-6,"MEAN_MOTION_DDOT":0},{"OBJECT_NAME":"QZS-3 (QZSS\/PRN 199)","OBJECT_ID":"2017-048A","EPOCH":"2024-06-18T00:56:23.639136","MEAN_MOTION":1.00272428,"ECCENTRICITY":0.0001615,"INCLINATION":0.0685,"RA_OF_ASC_NODE":149.1004,"ARG_OF_PERICENTER":292.4719,"MEAN_ANOMALY":326.365,"EPHEMERIS_TYPE":0,"CLASSIFICATION_TYPE":"U","NORAD_CAT_ID":42917,"ELEMENT_SET_NO":999,"REV_AT_EPOCH":2505,"BSTAR":0,"MEAN_MOTION_DOT":-3.25e-6,"MEAN_MOTION_DDOT":0},{"OBJECT_NAME":"COSMOS 2522 (752)","OBJECT_ID":"2017-055A","EPOCH":"2024-06-17T10:12:28.213920","MEAN_MOTION":2.13102052,"ECCENTRICITY":0.0009942,"INCLINATION":64.0822,"RA_OF_ASC_NODE":216.759,"ARG_OF_PERICENTER":240.2777,"MEAN_ANOMALY":119.7078,"EPHEMERIS_TYPE":0,"CLASSIFICATION_TYPE":"U","NORAD_CAT_ID":42939,"ELEMENT_SET_NO":999,"REV_AT_EPOCH":5242,"BSTAR":0,"MEAN_MOTION_DOT":8.1e-7,"MEAN_MOTION_DDOT":0},{"OBJECT_NAME":"QZS-4 (QZSS\/PRN 195)","OBJECT_ID":"2017-062A","EPOCH":"2024-06-16T20:14:42.591264","MEAN_MOTION":1.0025334,"ECCENTRICITY":0.0746262,"INCLINATION":40.5147,"RA_OF_ASC_NODE":352.7914,"ARG_OF_PERICENTER":271.5421,"MEAN_ANOMALY":81.3716,"EPHEMERIS_TYPE":0,"CLASSIFICATION_TYPE":"U","NORAD_CAT_ID":42965,"ELEMENT_SET_NO":999,"REV_AT_EPOCH":2449,"BSTAR":0,"MEAN_MOTION_DOT":-3.36e-6,"MEAN_MOTION_DDOT":0},{"OBJECT_NAME":"BEIDOU-3 M1 (C19)","OBJECT_ID":"2017-069A","EPOCH":"2024-06-17T09:53:53.436192","MEAN_MOTION":1.86231634,"ECCENTRICITY":0.0010752,"INCLINATION":56.0633,"RA_OF_ASC_NODE":87.2525,"ARG_OF_PERICENTER":309.0281,"MEAN_ANOMALY":50.8711,"EPHEMERIS_TYPE":0,"CLASSIFICATION_TYPE":"U","NORAD_CAT_ID":43001,"ELEMENT_SET_NO":999,"REV_AT_EPOCH":4501,"BSTAR":0,"MEAN_MOTION_DOT":-4.6e-7,"MEAN_MOTION_DDOT":0},{"OBJECT_NAME":"BEIDOU-3 M2 (C20)","OBJECT_ID":"2017-069B","EPOCH":"2024-06-17T08:23:31.270272","MEAN_MOTION":1.86231111,"ECCENTRICITY":0.0009052,"INCLINATION":56.0625,"RA_OF_ASC_NODE":87.2902,"ARG_OF_PERICENTER":332.2012,"MEAN_ANOMALY":27.7451,"EPHEMERIS_TYPE":0,"CLASSIFICATION_TYPE":"U","NORAD_CAT_ID":43002,"ELEMENT_SET_NO":999,"REV_AT_EPOCH":4500,"BSTAR":0,"MEAN_MOTION_DOT":-4.6e-7,"MEAN_MOTION_DDOT":0},{"OBJECT_NAME":"GSAT0215 (PRN E21)","OBJECT_ID":"2017-079A","EPOCH":"2024-06-16T03:12:34.579584","MEAN_MOTION":1.70474819,"ECCENTRICITY":0.0002514,"INCLINATION":55.3417,"RA_OF_ASC_NODE":241.6281,"ARG_OF_PERICENTER":254.2607,"MEAN_ANOMALY":105.7805,"EPHEMERIS_TYPE":0,"CLASSIFICATION_TYPE":"U","NORAD_CAT_ID":43055,"ELEMENT_SET_NO":999,"REV_AT_EPOCH":4052,"BSTAR":0,"MEAN_MOTION_DOT":1.2e-7,"MEAN_MOTION_DDOT":0},{"OBJECT_NAME":"GSAT0216 (PRN E25)","OBJECT_ID":"2017-079B","EPOCH":"2024-06-16T10:12:37.693728","MEAN_MOTION":1.70474978,"ECCENTRICITY":0.0003622,"INCLINATION":55.3416,"RA_OF_ASC_NODE":241.6201,"ARG_OF_PERICENTER":266.9497,"MEAN_ANOMALY":93.0789,"EPHEMERIS_TYPE":0,"CLASSIFICATION_TYPE":"U","NORAD_CAT_ID":43056,"ELEMENT_SET_NO":999,"REV_AT_EPOCH":4054,"BSTAR":0,"MEAN_MOTION_DOT":1.4e-7,"MEAN_MOTION_DDOT":0},{"OBJECT_NAME":"GSAT0217 (PRN E27)","OBJECT_ID":"2017-079C","EPOCH":"2024-06-14T21:16:03.486144","MEAN_MOTION":1.70474904,"ECCENTRICITY":0.0003327,"INCLINATION":55.3405,"RA_OF_ASC_NODE":241.6611,"ARG_OF_PERICENTER":279.6638,"MEAN_ANOMALY":80.3646,"EPHEMERIS_TYPE":0,"CLASSIFICATION_TYPE":"U","NORAD_CAT_ID":43057,"ELEMENT_SET_NO":999,"REV_AT_EPOCH":4050,"BSTAR":0,"MEAN_MOTION_DOT":4.0e-8,"MEAN_MOTION_DDOT":0}]
